STARLINK-30245          
1 57612U 23119L   26199.94019764 -.00000024  00000+0  86377-5 0  9996
2 57612  43.0039  59.9834 0001259 257.2363 102.8348 15.27575535163163
STARLINK-30041          
1 57613U 23119M   26200.01586096  .00000035  00000+0  10818-4 0  9992
2 57613  43.0037  59.6889 0001586 268.8053  91.2617 15.27577616163179
STARLINK-30244          
1 57614U 23119N   26199.89279643  .00001070  00000+0  48393-4 0  9992
2 57614  43.0022  60.4831 0001380 258.4927 101.5770 15.27574096163150
STARLINK-30246          
1 57615U 23119P   26199.63428796  .00008811  00000+0  32594-3 0  9995
2 57615  42.9996  61.9718 0001462 257.1431 102.9258 15.27921040163113
STARLINK-30075          
1 57616U 23119Q   26199.93763485  .00005714  00000+0  21709-3 0  9991
2 57616  43.0059  59.9765 0001668 327.5628  32.5121 15.27567810163166
STARLINK-30148          
1 57617U 23119R   26200.00944030  .00001687  00000+0  70829-4 0  9993
2 57617  43.0050  59.6534 0001466 260.5157  99.5529 15.27568742163179
STARLINK-30249          
1 57618U 23119S   26199.94790514  .00000900  00000+0  42230-4 0  9992
2 57618  43.0036  60.0517 0001262 280.5860  79.4849 15.27580206163168
STARLINK-30141          
1 57620U 23119U   26199.89408581  .00002874  00000+0  11391-3 0  9994
2 57620  43.0003  60.5017 0001232 270.7200  89.3511 15.27583078163156
STARLINK-30150          
1 57621U 23119V   26200.02101068 -.00001331  00000+0 -38830-4 0  9990
2 57621  43.0034  59.7373 0001830 268.9870  91.0772 15.27586333163170
STARLINK-30056          
1 57622U 23119W   26199.96589083  .00000670  00000+0  33857-4 0  9995
2 57622  43.0014  60.1516 0000931 265.5498  94.5248 15.27577354163162
STARLINK-30100          
1 57623U 23119X   26200.29668086  .00000505  00000+0  27870-4 0  9991
2 57623  43.0025  58.3605 0001236 267.9700  92.1010 15.27577999163216
LUDI TANCE-4 01A        
1 57624U 23120A   26199.96294622 -.00000182  00000+0  00000+0 0  9999
2 57624  15.0842 193.1788 0001618  11.8129 167.9914  1.00275385 10864
HEAD-3A                 
1 57626U 23121A   26200.28819559  .00000120  00000+0  57031-4 0  9994
2 57626  45.0004 153.8509 0005645  78.1329 282.0161 14.60715148156270
HEAD-3B                 
1 57627U 23121B   26200.28173544  .00000154  00000+0  62821-4 0  9992
2 57627  45.0016 146.8560 0004735  64.7649 295.3699 14.61620708156369
HEAD-3C                 
1 57628U 23121C   26200.29074385  .00000177  00000+0  66582-4 0  9990
2 57628  44.9987 141.0513 0005258  67.1288 293.0124 14.62295700156434
HEAD-3D                 
1 57629U 23121D   26200.23502083  .00000218  00000+0  73814-4 0  9998
2 57629  45.0031 136.4865 0006608  66.3095 293.8456 14.62965871156497
HEAD-3E                 
1 57630U 23121E   26200.23954240  .00000273  00000+0  82870-4 0  9999
2 57630  45.0010 129.2503 0007265  59.8905 300.2673 14.63899774156585
STARLINK-30309          
1 57632U 23122A   26200.04149804  .00003984  00000+0  15433-3 0  9995
2 57632  43.0054  70.8623 0001879 276.8633  83.2005 15.27561574162298
STARLINK-30306          
1 57633U 23122B   26200.04535046  .00000902  00000+0  42309-4 0  9993
2 57633  43.0043  70.8869 0001494 255.4785 104.5901 15.27572626162295
STARLINK-30323          
1 57634U 23122C   26199.95432647  .00000828  00000+0  39626-4 0  9999
2 57634  43.0018  60.0367 0000999 276.7964  83.2774 15.27561235162415
STARLINK-30329          
1 57635U 23122D   26200.05179212  .00018073  00000+0  66542-3 0  9997
2 57635  43.0011  70.9341 0001166 247.0559 113.0170 15.27542431162294
STARLINK-30330          
1 57636U 23122E   26200.05562997  .00001207  00000+0  53371-4 0  9992
2 57636  43.0006  70.9648 0000690 308.7230  51.3560 15.27579107162298
STARLINK-30311          
1 57637U 23122F   26200.00422225  .00001472  00000+0  63004-4 0  9995
2 57637  43.0015  70.5855 0000745 248.2306 111.8466 15.27578397162295
STARLINK-30328          
1 57638U 23122G   26199.94660452  .00000632  00000+0  32492-4 0  9996
2 57638  43.0036  59.9216 0001419 259.3840 100.6852 15.27574554162427
STARLINK-30326          
1 57639U 23122H   26200.02992786  .00000480  00000+0  26959-4 0  9999
2 57639  43.0061  70.7635 0001354 256.7518 103.3183 15.27573417162292
STARLINK-30324          
1 57640U 23122J   26200.04791827 -.00001413  00000+0 -41822-4 0  9991
2 57640  43.0044  70.9030 0001468 269.5108  90.5575 15.27591808162284
STARLINK-30312          
1 57641U 23122K   26199.99780796 -.00000106  00000+0  56668-5 0  9998
2 57641  43.0028  70.5350 0001361 267.5458  92.5238 15.27570490162299
STARLINK-30263          
1 57642U 23122L   26200.00808000  .00000480  00000+0  26972-4 0  9991
2 57642  43.0016  70.6142 0001001 270.3279  89.7458 15.27587907162294
STARLINK-30280          
1 57643U 23122M   26199.68886164 -.00000563  00000+0 -10947-4 0  9999
2 57643  43.0044  72.5166 0001497 270.5740  89.4940 15.27575166162249
STARLINK-30247          
1 57644U 23122N   26200.01194378 -.00000098  00000+0  59609-5 0  9990
2 57644  43.0050  70.6483 0001467 269.1933  90.8751 15.27570982162295
