OBJECT_NAME,OBJECT_ID,EPOCH,MEAN_MOTION,ECCENTRICITY,INCLINATION,RA_OF_ASC_NODE,ARG_OF_PERICENTER,MEAN_ANOMALY,EPHEMERIS_TYPE,CLASSIFICATION_TYPE,NORAD_CAT_ID,ELEMENT_SET_NO,REV_AT_EPOCH,BSTAR,MEAN_MOTION_DOT,MEAN_MOTION_DDOT
STARLINK-30245,2023-119L,2026-07-18T22:33:53.076096,15.27575535,.00012592,43.0039,59.9834,257.2363,102.8348,0,U,57612,999,16316,.8637731E-5,-.24E-6,0
STARLINK-30041,2023-119M,2026-07-19T00:22:50.386944,15.27577616,.00015865,43.0037,59.6889,268.8053,91.2617,0,U,57613,999,16317,.10818216E-4,.35E-6,0
STARLINK-30244,2023-119N,2026-07-18T21:25:37.611552,15.27574096,.00013807,43.0022,60.4831,258.4927,101.5770,0,U,57614,999,16315,.48393074E-4,.107E-4,0
STARLINK-30246,2023-119P,2026-07-18T15:13:22.479744,15.27921040,.0001462,42.9996,61.9718,257.1431,102.9258,0,U,57615,999,16311,.32594E-3,.8811E-4,0
STARLINK-30075,2023-119Q,2026-07-18T22:30:11.651040,15.27567810,.00016685,43.0059,59.9765,327.5628,32.5121,0,U,57616,999,16316,.21708931E-3,.5714E-4,0
STARLINK-30148,2023-119R,2026-07-19T00:13:35.641920,15.27568742,.00014669,43.0050,59.6534,260.5157,99.5529,0,U,57617,999,16317,.70829452E-4,.1687E-4,0
STARLINK-30249,2023-119S,2026-07-18T22:44:59.004096,15.27580206,.00012627,43.0036,60.0517,280.5860,79.4849,0,U,57618,999,16316,.42230167E-4,.9E-5,0
STARLINK-30141,2023-119U,2026-07-18T21:27:29.013984,15.27583078,.00012325,43.0003,60.5017,270.7200,89.3511,0,U,57620,999,16315,.11390792E-3,.2874E-4,0
STARLINK-30150,2023-119V,2026-07-19T00:30:15.322752,15.27586333,.00018305,43.0034,59.7373,268.9870,91.0772,0,U,57621,999,16317,-.38830451E-4,-.1331E-4,0
STARLINK-30056,2023-119W,2026-07-18T23:10:52.967712,15.27577354,.00009315,43.0014,60.1516,265.5498,94.5248,0,U,57622,999,16316,.33856566E-4,.67E-5,0
STARLINK-30100,2023-119X,2026-07-19T07:07:13.226304,15.27577999,.00012363,43.0025,58.3605,267.9700,92.1010,0,U,57623,999,16321,.2786982E-4,.505E-5,0
LUDI TANCE-4 01A,2023-120A,2026-07-18T23:06:38.553408,1.00275385,.00016182,15.0842,193.1788,11.8129,167.9914,0,U,57624,999,1086,0,-.182E-5,0
HEAD-3A,2023-121A,2026-07-19T06:55:00.098976,14.60715148,.00056458,45.0004,153.8509,78.1329,282.0161,0,U,57626,999,15627,.57030845E-4,.12E-5,0
HEAD-3B,2023-121B,2026-07-19T06:45:41.942016,14.61620708,.00047354,45.0016,146.8560,64.7649,295.3699,0,U,57627,999,15636,.62821407E-4,.154E-5,0
HEAD-3C,2023-121C,2026-07-19T06:58:40.268640,14.62295700,.00052589,44.9987,141.0513,67.1288,293.0124,0,U,57628,999,15643,.66582254E-4,.177E-5,0
HEAD-3D,2023-121D,2026-07-19T05:38:25.799712,14.62965871,.00066082,45.0031,136.4865,66.3095,293.8456,0,U,57629,999,15649,.73813951E-4,.218E-5,0
HEAD-3E,2023-121E,2026-07-19T05:44:56.463360,14.63899774,.0007265,45.0010,129.2503,59.8905,300.2673,0,U,57630,999,15658,.82869627E-4,.273E-5,0
STARLINK-30309,2023-122A,2026-07-19T00:59:45.430656,15.27561574,.0001879,43.0054,70.8623,276.8633,83.2005,0,U,57632,999,16229,.15432666E-3,.3984E-4,0
STARLINK-30306,2023-122B,2026-07-19T01:05:18.279744,15.27572626,.00014949,43.0043,70.8869,255.4785,104.5901,0,U,57633,999,16229,.42309342E-4,.902E-5,0
STARLINK-30323,2023-122C,2026-07-18T22:54:13.807008,15.27561235,.00009992,43.0018,60.0367,276.7964,83.2774,0,U,57634,999,16241,.39626407E-4,.828E-5,0
STARLINK-30329,2023-122D,2026-07-19T01:14:34.839168,15.27542431,.00011663,43.0011,70.9341,247.0559,113.0170,0,U,57635,999,16229,.66541686E-3,.18073E-3,0
STARLINK-30330,2023-122E,2026-07-19T01:20:06.429408,15.27579107,.00006909,43.0006,70.9648,308.7230,51.3560,0,U,57636,999,16229,.53371316E-4,.1207E-4,0
STARLINK-30311,2023-122F,2026-07-19T00:06:04.802400,15.27578397,.00007457,43.0015,70.5855,248.2306,111.8466,0,U,57637,999,16229,.6300434E-4,.1472E-4,0
STARLINK-30328,2023-122G,2026-07-18T22:43:06.630528,15.27574554,.00014197,43.0036,59.9216,259.3840,100.6852,0,U,57638,999,16242,.32491871E-4,.632E-5,0
STARLINK-30326,2023-122H,2026-07-19T00:43:05.767104,15.27573417,.0001354,43.0061,70.7635,256.7518,103.3183,0,U,57639,999,16229,.2695861E-4,.48E-5,0
STARLINK-30324,2023-122J,2026-07-19T01:09:00.138528,15.27591808,.00014687,43.0044,70.9030,269.5108,90.5575,0,U,57640,999,16228,-.41822418E-4,-.1413E-4,0
STARLINK-30312,2023-122K,2026-07-18T23:56:50.607744,15.27570490,.00013616,43.0028,70.5350,267.5458,92.5238,0,U,57641,999,16229,.5666844E-5,-.106E-5,0
STARLINK-30263,2023-122L,2026-07-19T00:11:38.112000,15.27587907,.00010012,43.0016,70.6142,270.3279,89.7458,0,U,57642,999,16229,.26972046E-4,.48E-5,0
STARLINK-30280,2023-122M,2026-07-18T16:31:57.645696,15.27575166,.00014976,43.0044,72.5166,270.5740,89.4940,0,U,57643,999,16224,-.10946641E-4,-.563E-5,0
STARLINK-30247,2023-122N,2026-07-19T00:17:11.942592,15.27570982,.00014672,43.0050,70.6483,269.1933,90.8751,0,U,57644,999,16229,.5960892E-5,-.98E-6,0
